ADRAS-J                 
1 58992U 24034A   24288.19557672  .00006626  00000+0  58699-3 0  9991
2 58992  98.2258 266.8452 0043635  19.2582 341.0274 14.95878922 35644
